#dP2021  7 10 12  0  0.00000000      96 __u+U ITR00 EXT  IAC
## 2165 561600.00000000   900.00000000 59405 0.5000000000000
+  116   C06C07C08C09C10C11C12C13C14C16C19C20C21C22C23C24C25
+        C26C27C28C29C30C32C33C34C35C36C37C38C39C40C41C42C43
+        C44C45C46E01E02E03E04E05E07E08E09E11E12E13E14E15E18
+        E19E21E24E25E26E27E30E31E33E36G01G02G03G04G05G07G08
+        G09G10G11G12G13G14G15G16G17G18G19G20G21G22G23G24G25
+        G26G27G28G29G30G31G32J01J02J03R01R02R03R04R05R07R08
+        R09R11R12R13R14R15R16R17R18R19R20R21R22R24  0  0  0
++        11  8 10 11  8  7  7 11  8 11  9  9  9 10  8  7  8
++         8  7  9  9  9  8  9  8 10  8  9  9  9 10 11  7  8
++         9  8  9  9 10  8  9  8  7  8  7  8  8  7  9  7  8
++        10  8  8  8  9  8 10  8  9  7  9  8  9  8  6  8  7
++         7  8  7  7  8  7  8  7  7  7  7  6  7 11  7  6  9
++         9  7  7  8  9  9  9 11 11 10 10  9  7  8  8  9  9
++        10  9  8  8 10  8  7  8  8  5  8  9  7  8  0  0  0
%c M  cc GPS ccc cccc cccc cccc cccc ccccc ccccc ccccc ccccc
%c cc cc ccc ccc cccc cccc cccc cccc ccccc ccccc ccccc ccccc
%f  0.0000000  0.000000000  0.00000000000  0.000000000000000
%f  0.0000000  0.000000000  0.00000000000  0.000000000000000
%i    0    0    0    0      0      0      0      0         0
%i    0    0    0    0      0      0      0      0         0
/* IAC                                ULTRA-RAPID PREDICTION
/* S/V CLOCKS ARE ALIGNED TO GNSS TIME                      
/* G:C1WC2W R:C1PC2P E:C1XC5X C:C2IC6I J:C1CC2S             
/* PCV:IGS14_2163 OL/AL:FES2004  NONE     YN ORB:CoN CLK:CoN
*  2021 07 10 15 30  0.00000000
PC06 -13246.824577  21625.943713  34126.633519    607.302600
PC07 -21893.305736  35092.859131  -9314.500364    136.402533
PC08  -5520.332730  34570.487866 -23092.082744   -902.721155
PC09   3067.924277  26455.388526  33092.375847    384.417982
PC10 -11125.520291  35824.664817 -19470.804821    -20.260678
PC11 -25150.115525 -12065.019280   1478.256439    449.596122
PC12 -12808.238827 -17797.430368  17302.678064    816.075732
PC13   2440.422296  40075.000454 -12369.887760    331.533253
PC14 -18135.627256  -4144.464697 -20795.615798    819.505029
PC16 -10820.904289  21899.286740  34489.541655   -926.593233
PC19  22949.768456  -4653.403129  15187.255337    903.949247
PC20  11711.775328  10886.637416  22883.902533   -849.137295
PC21   7150.289425 -20695.227510 -17268.042742   -935.360467
PC22  21255.160803 -17980.783507  -1623.602573   -948.386821
PC23 -11580.328223  16805.117618  19046.096043   -965.852518
PC24 -11501.225444 -22488.993687  11883.170539   -932.517419
PC25 -16555.721902  -2858.868655  22282.921788   -887.975379
PC26  -1253.017838 -27581.017005  -4177.891704    880.732588
PC27   2659.045246  17413.141078 -21669.815852    562.137491
PC28 -16770.407531   8375.562465 -20676.753133    -52.236660
PC29  26481.529462   4535.564166   7531.926010    417.646278
PC30  20651.396822  15633.109703 -10420.433104    473.609256
PC32  -7018.421554  20788.826081  17267.257104   -924.332068
PC33 -22931.665464   4748.239856 -15188.140174   -941.824840
PC34 -21136.719161 -15394.792581   9705.148749   -631.199131
PC35  16841.860805  -8748.513893  20458.582148   -193.631445
PC36  16472.960375   3673.915502 -22192.894256   -731.904606
PC37    -33.454674  27436.628297   5080.944893   -866.163286
PC38  -5587.045809  35837.248915 -21361.988241    160.825358
PC39  -8494.743411  22742.364557  34482.922440     32.317459
PC40 -19187.244151  32578.808107 -18795.237606    179.217263
PC41 -21330.172460  17946.238149   1369.213604   -957.796337
PC42 -11081.660228 -11460.277016 -22861.834993   -918.364370
PC43 -26531.613726  -4989.712543  -7037.572757   -815.081709
PC44  -2949.059238 -17360.029105  21629.196201    282.489434
PC45  11359.144568 -16967.642763 -19017.019534    489.839801
PC46  11974.059869  21693.715323 -12793.559128    185.334683
PE01 -17056.970275   -818.780805  24182.651469  -1147.201270
PE02  17095.314796    656.473567 -24153.917222    231.962560
PE03  28504.899779    594.410178   7926.709358   -451.173669
PE04 -25058.407078  11909.539513  10332.950311   -810.422960
PE05  15263.912278  12944.777829  21813.183168   -266.279923
PE07   6703.497467 -17601.119817 -22822.111297   -560.026443
PE08  24795.533673 -12129.451612 -10661.357262   5972.519723
PE09  -6468.452414  17511.599181  22983.098598   5605.072528
PE11   3115.226874  22613.128960 -18866.553928   5738.622342
PE12 -14196.833962   8192.804129 -24653.411929   5117.933571
PE13  -2835.100461 -22366.585868  19174.689223    418.842368
PE14 -20335.586090  15282.588538 -20098.178696  -1495.511531
PE15  14098.780501  -8200.860111  24699.642591    804.225718
PE18  16843.336697  -9671.250341  13340.320583  -1638.886038
PE19 -27777.292772  -2140.790898  -9994.405494    323.431298
PE21  -7493.025324 -19962.609103  20532.210393   -675.462439
PE24  -7541.542447  28334.703956  -4000.041513  -1000.496228
PE25   7339.584803  20137.600297 -20406.959624   -539.569063
PE26 -18426.835487 -23120.229822   1494.584868   1595.194118
PE27   6813.170928 -28395.058852   4859.567470    -72.672073
PE30  17424.668275 -19134.062989 -14378.961329   2795.152217
PE31 -17020.812511  20063.912173  13576.235739   -483.104243
PE33 -22689.203267 -10754.154794 -15673.807078   -467.886769
PE36  18056.023063  23338.394687  -2383.932136   -232.549122
PG01  17832.307063   7124.987342  18230.154277    632.439483
PG02 -13570.568908 -22743.202803   2112.106719   -618.610378
PG03  17379.709173  -2962.729530  19735.793414   -216.508668
PG04  26580.503020    814.388643   -276.728531   -202.060965
PG05 -11993.441423  -9927.876217 -21667.613636    -47.499551
PG07  12703.247940  -8484.672515 -21348.071906    199.129437
PG08  23842.769779   6613.543421 -10071.684805    -28.294189
PG09  22930.711300  -8003.411084 -10840.214120   -354.919802
PG10 -11116.584918  23739.702424   3347.784756   -159.289440
PG11 -11293.538484 -24027.916153    771.918001     12.163279
PG12 -17190.471932   1132.849671  19925.584876    -66.716832
PG13 -17478.071533 -13071.566506 -15368.848124    155.904178
PG14  12078.223023 -23365.773657   3522.440111     50.609541
PG15 -24510.125207  -4690.325935  -9953.143693   -136.496279
PG16   6194.849423  15601.186179 -20714.892623   -354.890849
PG17  10973.761263 -13163.138497  20720.428227    471.658752
PG18 -10502.986402  11592.361767 -21467.737461    341.890063
PG19    992.560996 -14632.900367  21862.342842     24.505553
PG20  -6030.817020 -19232.282559 -17430.287570    520.327369
PG21  19890.867521  12930.749802  13145.549301    130.409599
PG22  14718.079634   5880.096241  21492.752742   -567.067443
PG23 -16721.241188  19003.637302  -7969.400403     86.457478
PG24 -19781.507372 -10684.247444  14193.240432    168.811076
PG25 -18447.658031  13079.561270  13446.959137    171.059547
PG26   -953.395883  22816.169595 -13388.084188    108.899282
PG27  15614.092900  12250.652448 -18008.246375   -160.726922
PG28   8280.706595 -23441.327385  10155.589334    540.238118
PG29 -24181.523984   4806.819609 -10003.909716   -377.962752
PG30   3593.823837 -19841.309522 -17098.746041   -449.165631
PG31   5716.768591  24036.509444   9003.357996   -127.861997
PG32  -7208.665708  14772.027229  20945.091724     14.778891
PJ01 -31017.761322  27766.881730  12039.961942   -412.728824
PJ02 -30140.043311  26004.019938  18905.267644     -0.701917
PJ03 -25420.395288  18232.721564 -23610.811740    -10.633088
PR01 -21992.382647  12829.179047   1701.414584     82.117535
PR02  -8120.076908  14389.400246  19454.893414    485.525349
PR03   9538.063711   7168.441328  22596.212699     39.238225
PR04  21507.590285  -4078.557014  13127.271876     95.170029
PR05  21683.944253 -12937.694212  -3681.999634     75.092513
PR07 -10065.721298  -6788.982949 -22388.102128    -42.087341
PR08 -21552.400025   4146.465855 -12925.452532    -59.890937
PR09   1544.609809 -25383.491732  -1367.001816      2.208474
PR11 -10757.817431  -2796.143076  22971.774214    -20.357096
PR12  -9022.240383  16345.638916  17403.801099    244.171658
PR13  -1879.902396  25349.869776   2154.517028    -57.507006
PR14   6507.168815  19438.644294 -15178.597702     66.305980
PR15  10868.921272   2349.352045 -22932.408925    102.763932
PR16   8403.415506 -17596.244214 -16533.597838    -17.697646
PR17  18037.650996  16103.532663  -8057.807007    439.888949
PR18  21904.310106   9646.261115   8897.674961     82.956219
PR19  14773.818868   -963.600826  20761.745797   -150.999581
PR20  -2970.853514 -13630.650958  21344.945136    -52.261649
PR21 -18711.945654 -15955.569839   6829.399758   -222.857363
PR22 -21626.501796  -9096.994044  -9918.129868   -121.968487
PR24   3668.259559  14236.861085 -20831.173863     49.899272
EOF
